CSS (TIANHE)            
1 48274U 21035A   24201.81210661  .00023724  00000+0  24539-3 0  9993
2 48274  41.4669 243.8582 0001960  96.8280 263.2783 15.64164968184204
